CCSDS_OEM_VERS = 2.0  
CREATION_DATE  = 2026-03-24T10:45:54
ORIGINATOR     = ESOC/OPS-GFA                            
 
 



META_START
OBJECT_NAME          = LISA                                    
OBJECT_ID            = -1000                                   
CENTER_NAME          = SUN                     
REF_FRAME            = EME2000 
TIME_SYSTEM          = TCB
START_TIME           = 2036-12-23T00:00:30.346418            
STOP_TIME            = 2047-09-07T05:02:21.282294            
INTERPOLATION        = HERMITE                                 
INTERPOLATION_DEGREE = 7                                       
META_STOP

2046-12-03T02:22:55.749846     1.02715332753749385e+08    1.00059457245275736e+08    4.30511182713365257e+07   -2.17667701382733334e+01    1.87568986837473552e+01    7.86850041798403232e+00   -4.06178382473195462e-06   -3.95671171415928422e-06   -1.70239885701861395e-06
2046-12-03T22:36:52.631973     1.01119189669950262e+08    1.01415107270094305e+08    4.36196992070542797e+07   -2.20603531813839773e+01    1.84667180250861662e+01    7.74366962909673884e+00   -3.99945483051697411e-06   -4.01111147483053140e-06   -1.72522325973623448e-06
2046-12-04T18:50:49.514100     9.95018290194870532e+07    1.02749477875723645e+08    4.41791276300784200e+07   -2.23493647097400796e+01    1.81726049899714539e+01    7.61718926506527971e+00   -3.93625843862258628e-06   -4.06468729315912846e-06   -1.74769305198320694e-06
2046-12-05T15:09:06.356145     9.78577021056620330e+07    1.04066931422697693e+08    4.47312311553055197e+07   -2.26347486053677223e+01    1.78735496336412076e+01    7.48862524797273199e+00   -3.87197756271021349e-06   -4.11761407811768994e-06   -1.76988153798259192e-06
2046-12-06T11:27:23.198192     9.61928870279568285e+07    1.05362384341195539e+08    4.52738781105119959e+07   -2.29154027139922718e+01    1.75706566339102075e+01    7.35845271516634902e+00   -3.80684912114654974e-06   -4.16968694363634434e-06   -1.79170276471868035e-06
2046-12-07T07:45:40.040238     9.45077317750709504e+07    1.06635558435049936e+08    4.58069519173161462e+07   -2.31912655683781459e+01    1.72639888403959638e+01    7.22669869292172518e+00   -3.74088647025073942e-06   -4.22089412201284204e-06   -1.81315179420936654e-06
2046-12-08T04:03:56.882283     9.28025887786391675e+07    1.07886180072772264e+08    4.63303379601112008e+07   -2.34622766838477368e+01    1.69536099583261226e+01    7.09339056649077637e+00   -3.67410313935022627e-06   -4.27122397441886945e-06   -1.83422374411869907e-06
2046-12-09T00:22:13.724330     9.10778148543425500e+07    1.09113980302063778e+08    4.68439236344665214e+07   -2.37283765713020536e+01    1.66395845383427350e+01    6.95855607570256929e+00   -3.60651284052421228e-06   -4.32066501146926156e-06   -1.85491379655197843e-06
2046-12-09T20:40:30.566376     8.93337711355655938e+07    1.10318694938590273e+08    4.73475983845487162e+07   -2.39895067508594018e+01    1.63219779649322270e+01    6.82222330997669424e+00   -3.53812947585076618e-06   -4.36920591032587737e-06   -1.87521720536486739e-06
2046-12-10T16:58:47.408422     8.75708230009929538e+07    1.11500064634459615e+08    4.78412537318825498e+07   -2.42456097659326275e+01    1.60008564437315677e+01    6.68442070285657675e+00   -3.46896714216134895e-06   -4.41683552834265270e-06   -1.89512930198946086e-06
2046-12-11T13:17:04.250468     8.57893399975533634e+07    1.12657834931827903e+08    4.83247832977654934e+07   -2.44966291975625801e+01    1.56762869879637297e+01    6.54517702617124542e+00   -3.39904013329459910e-06   -4.46354291324240626e-06   -1.91464549977316049e-06
2046-12-12T09:35:21.092513     8.39896957601185441e+07    1.13791756307059854e+08    4.87980828216498941e+07   -2.47425096788253924e+01    1.53483374042555081e+01    6.40452138393407644e+00   -3.32836293986373358e-06   -4.50931730984185098e-06   -1.93376129683751507e-06
2046-12-13T05:53:37.934560     8.21722679293644577e+07    1.14901584210869104e+08    4.92610501778067499e+07   -2.49831969091310917e+01    1.50170762780907250e+01    6.26248320608702169e+00   -3.25695024651430194e-06   -4.55414816329811542e-06   -1.95247227744541107e-06
2046-12-14T02:11:54.776605     8.03374380692027956e+07    1.15987079109864101e+08    4.97135853925850540e+07   -2.52186376682312456e+01    1.46825729591519618e+01    6.11909224219883008e+00   -3.18481692670401882e-06   -4.59802511891452000e-06   -1.97077411189307559e-06
2046-12-14T22:30:11.618651     7.84855915851900280e+07    1.17048006534925073e+08    5.01555906645805240e+07   -2.54487798297531604e+01    1.43448975468037965e+01    5.97437855522578687e+00   -3.11197803498023328e-06   -4.64093801847283196e-06   -1.98866255491249040e-06
2046-12-15T18:48:28.460698     7.66171176453219950e+07    1.18084137141837969e+08    5.05869703900279105e+07   -2.56735723740782404e+01    1.40041208759707043e+01    5.82837251544346113e+00   -3.03844879673792830e-06   -4.68287689308127495e-06   -2.00613344257986491e-06
2046-12-16T15:06:45.302743     7.47324091046211720e+07    1.19095246789610863e+08    5.10076311957305148e+07   -2.58929654003821454e+01    1.36603145036625939e+01    5.68110479465799934e+00   -2.96424459554014869e-06   -4.72383195262114139e-06   -2.02318268776572493e-06
2046-12-17T11:25:02.144790     7.28318624349247664e+07    1.20081116641898543e+08    5.14174819818412140e+07   -2.61069101376542321e+01    1.33135506964011352e+01    5.53260636080546586e+00   -2.88938095789059382e-06   -4.76379357167465804e-06   -2.03980627407602251e-06
2046-12-18T07:43:18.986835     7.09158776612807214e+07    1.21041533296960860e+08    5.18164339768086374e+07   -2.63153589545140214e+01    1.29639024187998970e+01    5.38290847304772768e+00   -2.81387353548972533e-06   -4.80275227196840363e-06   -2.05600024829931004e-06
2046-12-19T04:03:38.933765     6.89815937003356814e+07    1.21977841140216127e+08    5.22050447511613965e+07   -2.65186024001217149e+01    1.26108473899471427e+01    5.23178762510997331e+00   -2.73760970449425124e-06   -4.84076224412751587e-06   -2.07178709851377991e-06
2046-12-20T00:23:58.880696     6.70326332537144944e+07    1.22888197353204653e+08    5.25825485448810831e+07   -2.67162392424801389e+01    1.22550467229911710e+01    5.07952689977314620e+00   -2.66073209531804081e-06   -4.87774781026446180e-06   -2.08713534777717888e-06
2046-12-20T20:44:18.827625     6.50694084628868550e+07    1.23772403686876118e+08    5.29488630890047699e+07   -2.69082251380602493e+01    1.18965757439295832e+01    4.92615854409583065e+00   -2.58325704501288278e-06   -4.91370028171227564e-06   -2.10204138199948535e-06
2046-12-21T17:04:38.774555     6.30923346736526564e+07    1.24630267366537616e+08    5.33039084580515102e+07   -2.70945169445428391e+01    1.15355104088954779e+01    4.77171506716367766e+00   -2.50520102839379333e-06   -4.94861113931046489e-06   -2.11650165984379449e-06
2046-12-22T13:24:58.721485     6.11018303476893678e+07    1.25461601193003178e+08    5.36476071125964597e+07   -2.72750727310653609e+01    1.11719272908678136e+01    4.61622923438815302e+00   -2.42658066208123356e-06   -4.98247205662479565e-06   -2.13051272261949021e-06
2046-12-23T09:45:18.668415     5.90983169733102694e+07    1.26266223616247296e+08    5.39798839301495999e+07   -2.74498517887051818e+01    1.08059035648357593e+01    4.45973406114671356e+00   -2.34741270697921826e-06   -5.01527491904316844e-06   -2.14407120241439591e-06
2046-12-24T06:05:38.615345     5.70822189754225612e+07    1.27043958787329510e+08    5.43006662267913818e+07   -2.76188146410870701e+01    1.04375169917155883e+01    4.30226280589194410e+00   -2.26771406919115883e-06   -5.04701183875505372e-06   -2.15717382846883930e-06
2046-12-25T02:25:58.562275     5.50539636246911585e+07    1.27794636594346792e+08    5.46098837720129639e+07   -2.77819230550004050e+01    1.00668459013217966e+01    4.14384896285847670e+00   -2.18750179936803421e-06   -5.07767516560337472e-06   -2.16981743178700815e-06
2046-12-25T22:46:18.509205     5.30139809459141642e+07    1.28518092688170224e+08    5.49074687992087454e+07   -2.79391400509115329e+01    9.69396917469418362e+00    3.98452625449655029e+00   -2.10679309049844926e-06   -5.10725749382813995e-06   -2.18199894799380694e-06
2046-12-26T19:06:38.456135     5.09627036256159395e+07    1.29214168503722370e+08    5.51933560142689869e+07   -2.80904299132567914e+01    9.31896622608251590e+00    3.82432862376102989e+00   -2.02560527412506653e-06   -5.13575166467061379e-06   -2.19371541842387655e-06
2046-12-27T15:26:58.403064     4.89005669188635796e+07    1.29882711282551870e+08    5.54674826047201976e+07   -2.82357582004016798e+01    8.94191698489051667e+00    3.66329022638475710e+00   -1.94395581500835922e-06   -5.16315076488168811e-06   -2.20496398946148534e-06
2046-12-28T11:47:18.349994     4.68280085553129092e+07    1.30523574102462083e+08    5.57297882518610284e+07   -2.83750917541516046e+01    8.56290187788085966e+00    3.50144542326504427e+00   -1.86186230422246152e-06   -5.18944812109737088e-06   -2.21574191011535065e-06
2046-12-29T08:07:38.296925     4.47454686444897726e+07    1.31136615919949830e+08    5.59802151483414099e+07   -2.85083987086997013e+01    8.18200181194280773e+00    3.33882877309216797e+00   -1.77934245066905173e-06   -5.21463729006716079e-06   -2.22604652782236804e-06
2046-12-30T04:27:58.243854     4.26533895803124234e+07    1.31721701631211042e+08    5.62187080236326829e+07   -2.86356484988972397e+01    7.79929815772432988e+00    3.17547502534871207e+00   -1.69641407106802784e-06   -5.23871204483359179e-06   -2.23587528252230420e-06
2046-12-31T00:48:18.190784     4.05522159448613450e+07    1.32278702157469943e+08    5.64452141798363626e+07   -2.87568118677320115e+01    7.41487273443012906e+00    3.01141911380856842e+00   -1.61309507834743089e-06   -5.26166635672497072e-06   -2.24522569894432946e-06
